{
  "type": "FeatureCollection",
  "features": [
    {
      "type": "Feature",
      "properties": {
        "norad_id": 66568,
        "name": "STARLINK-35803",
        "group": "last-30-days",
        "lat": -17.721886026653912,
        "lon": -126.35451511077233,
        "alt_km": 438.91443713433273,
        "timestamp": "2025-12-27T16:33:28.970520+00:00",
        "meta_object_name": "STARLINK-35803",
        "meta_object_id": "2025-268M",
        "meta_epoch": "2025-12-27T12:00:02.000160",
        "meta_mean_motion": 15.43733223,
        "meta_eccentricity": 0.0001048,
        "meta_inclination": 43.0003,
        "meta_ra_of_asc_node": 34.6891,
        "meta_arg_of_pericenter": 286.6637,
        "meta_mean_anomaly": 303.4452,
        "meta_ephemeris_type": 0,
        "meta_classification_type": "U",
        "meta_norad_cat_id": 66568,
        "meta_element_set_no": 999,
        "meta_rev_at_epoch": 610,
        "meta_bstar": -0.041222,
        "meta_mean_motion_dot": -0.01699248,
        "meta_mean_motion_ddot": 0,
        "tle_line1": "1 66568U 25268M   25361.50002315 -.01699248  00000+0 -41222-1 0  9999",
        "tle_line2": "2 66568  43.0003  34.6891 0001048 286.6637 303.4452 15.43733223  6106"
      },
      "geometry": {
        "type": "Point",
        "coordinates": [
          -126.35451511077233,
          -17.721886026653912
        ]
      }
    },
    {
      "type": "Feature",
      "properties": {
        "norad_id": 66569,
        "name": "STARLINK-35835",
        "group": "last-30-days",
        "lat": -34.24305106957991,
        "lon": -99.55577828809231,
        "alt_km": 441.8696277578392,
        "timestamp": "2025-12-27T16:33:28.970530+00:00",
        "meta_object_name": "STARLINK-35835",
        "meta_object_id": "2025-268N",
        "meta_epoch": "2025-12-27T12:00:02.000160",
        "meta_mean_motion": 15.43121279,
        "meta_eccentricity": 9.75e-05,
        "meta_inclination": 43.0008,
        "meta_ra_of_asc_node": 34.6173,
        "meta_arg_of_pericenter": 286.1026,
        "meta_mean_anomaly": 333.5966,
        "meta_ephemeris_type": 0,
        "meta_classification_type": "U",
        "meta_norad_cat_id": 66569,
        "meta_element_set_no": 999,
        "meta_rev_at_epoch": 599,
        "meta_bstar": -0.048698,
        "meta_mean_motion_dot": -0.0196941,
        "meta_mean_motion_ddot": 0,
        "tle_line1": "1 66569U 25268N   25361.50002315 -.01969410  00000+0 -48698-1 0  9995",
        "tle_line2": "2 66569  43.0008  34.6173 0000975 286.1026 333.5966 15.43121279  5992"
      },
      "geometry": {
        "type": "Point",
        "coordinates": [
          -99.55577828809231,
          -34.24305106957991
        ]
      }
    },
    {
      "type": "Feature",
      "properties": {
        "norad_id": 66570,
        "name": "STARLINK-35834",
        "group": "last-30-days",
        "lat": -10.02257483076845,
        "lon": 23.193045600571374,
        "alt_km": 483.2614055895465,
        "timestamp": "2025-12-27T16:33:28.970540+00:00",
        "meta_object_name": "STARLINK-35834",
        "meta_object_id": "2025-268P",
        "meta_epoch": "2025-12-27T12:00:02.000160",
        "meta_mean_motion": 15.27965129,
        "meta_eccentricity": 0.0001047,
        "meta_inclination": 43.001,
        "meta_ra_of_asc_node": 35.1987,
        "meta_arg_of_pericenter": 286.5482,
        "meta_mean_anomaly": 93.0418,
        "meta_ephemeris_type": 0,
        "meta_classification_type": "U",
        "meta_norad_cat_id": 66570,
        "meta_element_set_no": 999,
        "meta_rev_at_epoch": 599,
        "meta_bstar": -0.024204,
        "meta_mean_motion_dot": -0.00627763,
        "meta_mean_motion_ddot": 0,
        "tle_line1": "1 66570U 25268P   25361.50002315 -.00627763  00000+0 -24204-1 0  9995",
        "tle_line2": "2 66570  43.0010  35.1987 0001047 286.5482  93.0418 15.27965129  5999"
      },
      "geometry": {
        "type": "Point",
        "coordinates": [
          23.193045600571374,
          -10.02257483076845
        ]
      }
    },
    {
      "type": "Feature",
      "properties": {
        "norad_id": 66571,
        "name": "STARLINK-35836",
        "group": "last-30-days",
        "lat": 4.299501688596056,
        "lon": 38.701588268818035,
        "alt_km": 479.64288914820463,
        "timestamp": "2025-12-27T16:33:28.970549+00:00",
        "meta_object_name": "STARLINK-35836",
        "meta_object_id": "2025-268Q",
        "meta_epoch": "2025-12-27T12:00:02.000160",
        "meta_mean_motion": 15.29546001,
        "meta_eccentricity": 0.0001377,
        "meta_inclination": 43.0007,
        "meta_ra_of_asc_node": 35.1493,
        "meta_arg_of_pericenter": 283.3581,
        "meta_mean_anomaly": 116.5405,
        "meta_ephemeris_type": 0,
        "meta_classification_type": "U",
        "meta_norad_cat_id": 66571,
        "meta_element_set_no": 999,
        "meta_rev_at_epoch": 599,
        "meta_bstar": -0.10204,
        "meta_mean_motion_dot": -0.02660297,
        "meta_mean_motion_ddot": 0,
        "tle_line1": "1 66571U 25268Q   25361.50002315 -.02660297  00000+0 -10204+0 0  9990",
        "tle_line2": "2 66571  43.0007  35.1493 0001377 283.3581 116.5405 15.29546001  5992"
      },
      "geometry": {
        "type": "Point",
        "coordinates": [
          38.701588268818035,
          4.299501688596056
        ]
      }
    },
    {
      "type": "Feature",
      "properties": {
        "norad_id": 66572,
        "name": "STARLINK-35870",
        "group": "last-30-days",
        "lat": 25.861751537894843,
        "lon": 65.3408396116567,
        "alt_km": 471.6889056230366,
        "timestamp": "2025-12-27T16:33:28.970559+00:00",
        "meta_object_name": "STARLINK-35870",
        "meta_object_id": "2025-268R",
        "meta_epoch": "2025-12-27T12:00:02.000160",
        "meta_mean_motion": 15.30989408,
        "meta_eccentricity": 8.85e-05,
        "meta_inclination": 43.0008,
        "meta_ra_of_asc_node": 35.0741,
        "meta_arg_of_pericenter": 320.4474,
        "meta_mean_anomaly": 111.8814,
        "meta_ephemeris_type": 0,
        "meta_classification_type": "U",
        "meta_norad_cat_id": 66572,
        "meta_element_set_no": 999,
        "meta_rev_at_epoch": 599,
        "meta_bstar": -0.089796,
        "meta_mean_motion_dot": -0.02427221,
        "meta_mean_motion_ddot": 0,
        "tle_line1": "1 66572U 25268R   25361.50002315 -.02427221  00000+0 -89796-1 0  9993",
        "tle_line2": "2 66572  43.0008  35.0741 0000885 320.4474 111.8814 15.30989408  5992"
      },
      "geometry": {
        "type": "Point",
        "coordinates": [
          65.3408396116567,
          25.861751537894843
        ]
      }
    },
    {
      "type": "Feature",
      "properties": {
        "norad_id": 66573,
        "name": "STARLINK-35650",
        "group": "last-30-days",
        "lat": 35.82076122012492,
        "lon": 84.71039039875274,
        "alt_km": 468.70149332126584,
        "timestamp": "2025-12-27T16:33:28.970569+00:00",
        "meta_object_name": "STARLINK-35650",
        "meta_object_id": "2025-268S",
        "meta_epoch": "2025-12-27T12:00:02.000160",
        "meta_mean_motion": 15.31539402,
        "meta_eccentricity": 0.0001397,
        "meta_inclination": 43.0007,
        "meta_ra_of_asc_node": 35.0264,
        "meta_arg_of_pericenter": 286.4789,
        "meta_mean_anomaly": 164.741,
        "meta_ephemeris_type": 0,
        "meta_classification_type": "U",
        "meta_norad_cat_id": 66573,
        "meta_element_set_no": 999,
        "meta_rev_at_epoch": 604,
        "meta_bstar": -0.069808,
        "meta_mean_motion_dot": -0.01967331,
        "meta_mean_motion_ddot": 0,
        "tle_line1": "1 66573U 25268S   25361.50002315 -.01967331  00000+0 -69808-1 0  9996",
        "tle_line2": "2 66573  43.0007  35.0264 0001397 286.4789 164.7410 15.31539402  6043"
      },
      "geometry": {
        "type": "Point",
        "coordinates": [
          84.71039039875274,
          35.82076122012492
        ]
      }
    },
    {
      "type": "Feature",
      "properties": {
        "norad_id": 66574,
        "name": "STARLINK-35812",
        "group": "last-30-days",
        "lat": 41.82485307791768,
        "lon": 107.70280096947033,
        "alt_km": 465.3885870489503,
        "timestamp": "2025-12-27T16:33:28.970578+00:00",
        "meta_object_name": "STARLINK-35812",
        "meta_object_id": "2025-268T",
        "meta_epoch": "2025-12-27T12:00:02.000160",
        "meta_mean_motion": 15.32375018,
        "meta_eccentricity": 0.0001338,
        "meta_inclination": 43.0006,
        "meta_ra_of_asc_node": 34.9814,
        "meta_arg_of_pericenter": 292.5615,
        "meta_mean_anomaly": 176.9223,
        "meta_ephemeris_type": 0,
        "meta_classification_type": "U",
        "meta_norad_cat_id": 66574,
        "meta_element_set_no": 999,
        "meta_rev_at_epoch": 599,
        "meta_bstar": -0.067957,
        "meta_mean_motion_dot": -0.01934918,
        "meta_mean_motion_ddot": 0,
        "tle_line1": "1 66574U 25268T   25361.50002315 -.01934918  00000+0 -67957-1 0  9995",
        "tle_line2": "2 66574  43.0006  34.9814 0001338 292.5615 176.9223 15.32375018  5995"
      },
      "geometry": {
        "type": "Point",
        "coordinates": [
          107.70280096947033,
          41.82485307791768
        ]
      }
    }
  ]
}